{"type": "FeatureCollection", "features": [ {"type": "Feature", "properties": {"norad_id": 57401, "name": "TIANMU-1 09", "group": "weather", "lat": -48.485929494247095, "lon": 57.31953677851455, "alt_km": 488.26742880435177, "timestamp": "2025-12-26T03:50:11.730445+00:00", "meta": {"OBJECT_NAME": "TIANMU-1 09", "OBJECT_ID": "2023-101C", "EPOCH": "2025-12-25T20:11:36.850272", "MEAN_MOTION": 15.28273845, "ECCENTRICITY": 0.0006171, "INCLINATION": 97.2802, "RA_OF_ASC_NODE": 48.7042, "ARG_OF_PERICENTER": 47.6432, "MEAN_ANOMALY": 312.533, "EPHEMERIS_TYPE": 0, "CLASSIFICATION_TYPE": "U", "NORAD_CAT_ID": 57401, "ELEMENT_SET_NO": 999, "REV_AT_EPOCH": 13515, "BSTAR": 0.00029173, "MEAN_MOTION_DOT": 7.968e-05, "MEAN_MOTION_DDOT": 0}, "tle": {"line1": "1 57401U 23101C   25359.84139873  .00007968  00000+0  29173-3 0  9995", "line2": "2 57401  97.2802  48.7042 0006171  47.6432 312.5330 15.28273845135150"}}, "geometry": {"type": "Point", "coordinates": [57.31953677851455, -48.485929494247095]}}, {"type": "Feature", "properties": {"norad_id": 57402, "name": "TIANMU-1 10", "group": "weather", "lat": 56.47186707375912, "lon": -118.98355485969638, "alt_km": 474.5798781912463, "timestamp": "2025-12-26T03:50:11.730455+00:00", "meta": {"OBJECT_NAME": "TIANMU-1 10", "OBJECT_ID": "2023-101D", "EPOCH": "2025-12-25T19:26:41.538336", "MEAN_MOTION": 15.28265543, "ECCENTRICITY": 0.000788, "INCLINATION": 97.2881, "RA_OF_ASC_NODE": 49.5375, "ARG_OF_PERICENTER": 45.0608, "MEAN_ANOMALY": 315.127, "EPHEMERIS_TYPE": 0, "CLASSIFICATION_TYPE": "U", "NORAD_CAT_ID": 57402, "ELEMENT_SET_NO": 999, "REV_AT_EPOCH": 13514, "BSTAR": 0.00029777, "MEAN_MOTION_DOT": 8.135e-05, "MEAN_MOTION_DDOT": 0}, "tle": {"line1": "1 57402U 23101D   25359.81020299  .00008135  00000+0  29777-3 0  9991", "line2": "2 57402  97.2881  49.5375 0007880  45.0608 315.1270 15.28265543135148"}}, "geometry": {"type": "Point", "coordinates": [-118.98355485969638, 56.47186707375912]}}, {"type": "Feature", "properties": {"norad_id": 57490, "name": "FENGYUN 3F", "group": "weather", "lat": -20.084181099761985, "lon": -114.97625209972429, "alt_km": 830.7543196648494, "timestamp": "2025-12-26T03:50:11.730466+00:00", "meta": {"OBJECT_NAME": "FENGYUN 3F", "OBJECT_ID": "2023-111A", "EPOCH": "2025-12-25T20:07:54.448032", "MEAN_MOTION": 14.19896974, "ECCENTRICITY": 8.45e-05, "INCLINATION": 98.7066, "RA_OF_ASC_NODE": 67.9199, "ARG_OF_PERICENTER": 117.8044, "MEAN_ANOMALY": 242.3218, "EPHEMERIS_TYPE": 0, "CLASSIFICATION_TYPE": "U", "NORAD_CAT_ID": 57490, "ELEMENT_SET_NO": 999, "REV_AT_EPOCH": 12426, "BSTAR": 5.8924e-05, "MEAN_MOTION_DOT": 8.1e-07, "MEAN_MOTION_DDOT": 0}, "tle": {"line1": "1 57490U 23111A   25359.83882463  .00000081  00000+0  58924-4 0  9999", "line2": "2 57490  98.7066  67.9199 0000845 117.8044 242.3218 14.19896974124261"}}, "geometry": {"type": "Point", "coordinates": [-114.97625209972429, -20.084181099761985]}}, {"type": "Feature", "properties": {"norad_id": 58584, "name": "ARKTIKA-M 2", "group": "weather", "lat": 49.52718693647027, "lon": -42.87095036030292, "alt_km": 26479.061727880773, "timestamp": "2025-12-26T03:50:11.730481+00:00", "meta": {"OBJECT_NAME": "ARKTIKA-M 2", "OBJECT_ID": "2023-198A", "EPOCH": "2025-12-24T19:00:30.507264", "MEAN_MOTION": 2.00602347, "ECCENTRICITY": 0.6865959, "INCLINATION": 63.2255, "RA_OF_ASC_NODE": 173.58, "ARG_OF_PERICENTER": 268.0557, "MEAN_ANOMALY": 18.8416, "EPHEMERIS_TYPE": 0, "CLASSIFICATION_TYPE": "U", "NORAD_CAT_ID": 58584, "ELEMENT_SET_NO": 999, "REV_AT_EPOCH": 1482, "BSTAR": 0, "MEAN_MOTION_DOT": 2.24e-06, "MEAN_MOTION_DDOT": 0}, "tle": {"line1": "1 58584U 23198A   25358.79201976  .00000224  00000+0  00000+0 0  9993", "line2": "2 58584  63.2255 173.5800 6865959 268.0557  18.8416  2.00602347 14827"}}, "geometry": {"type": "Point", "coordinates": [-42.87095036030292, 49.52718693647027]}}, {"type": "Feature", "properties": {"norad_id": 58645, "name": "TIANMU-1 11", "group": "weather", "lat": 46.13642753680878, "lon": -152.72375406290348, "alt_km": 490.12751159709205, "timestamp": "2025-12-26T03:50:11.730494+00:00", "meta": {"OBJECT_NAME": "TIANMU-1 11", "OBJECT_ID": "2023-205A", "EPOCH": "2025-12-25T20:57:11.406816", "MEAN_MOTION": 15.24756005, "ECCENTRICITY": 0.0007576, "INCLINATION": 97.3598, "RA_OF_ASC_NODE": 19.2655, "ARG_OF_PERICENTER": 254.049, "MEAN_ANOMALY": 105.9914, "EPHEMERIS_TYPE": 0, "CLASSIFICATION_TYPE": "U", "NORAD_CAT_ID": 58645, "ELEMENT_SET_NO": 999, "REV_AT_EPOCH": 11109, "BSTAR": 0.00028197, "MEAN_MOTION_DOT": 6.92e-05, "MEAN_MOTION_DDOT": 0}, "tle": {"line1": "1 58645U 23205A   25359.87304869  .00006920  00000+0  28197-3 0  9995", "line2": "2 58645  97.3598  19.2655 0007576 254.0490 105.9914 15.24756005111094"}}, "geometry": {"type": "Point", "coordinates": [-152.72375406290348, 46.13642753680878]}}, {"type": "Feature", "properties": {"norad_id": 58646, "name": "TIANMU-1 12", "group": "weather", "lat": -19.859489695651032, "lon": 22.02371283044771, "alt_km": 498.4856629040951, "timestamp": "2025-12-26T03:50:11.730504+00:00", "meta": {"OBJECT_NAME": "TIANMU-1 12", "OBJECT_ID": "2023-205B", "EPOCH": "2025-12-25T20:02:54.801600", "MEAN_MOTION": 15.24642519, "ECCENTRICITY": 0.0006036, "INCLINATION": 97.3586, "RA_OF_ASC_NODE": 19.0295, "ARG_OF_PERICENTER": 231.9294, "MEAN_ANOMALY": 128.14, "EPHEMERIS_TYPE": 0, "CLASSIFICATION_TYPE": "U", "NORAD_CAT_ID": 58646, "ELEMENT_SET_NO": 999, "REV_AT_EPOCH": 11107, "BSTAR": 0.00026477, "MEAN_MOTION_DOT": 6.469e-05, "MEAN_MOTION_DDOT": 0}, "tle": {"line1": "1 58646U 23205B   25359.83535650  .00006469  00000+0  26477-3 0  9993", "line2": "2 58646  97.3586  19.0295 0006036 231.9294 128.1400 15.24642519111075"}}, "geometry": {"type": "Point", "coordinates": [22.02371283044771, -19.859489695651032]}}, {"type": "Feature", "properties": {"norad_id": 58647, "name": "TIANMU-1 13", "group": "weather", "lat": 21.662445130128916, "lon": -157.5014827782896, "alt_km": 488.72107580395914, "timestamp": "2025-12-26T03:50:11.730514+00:00", "meta": {"OBJECT_NAME": "TIANMU-1 13", "OBJECT_ID": "2023-205C", "EPOCH": "2025-12-25T19:16:10.997184", "MEAN_MOTION": 15.24685677, "ECCENTRICITY": 0.000671, "INCLINATION": 97.3614, "RA_OF_ASC_NODE": 19.2043, "ARG_OF_PERICENTER": 210.4543, "MEAN_ANOMALY": 149.6306, "EPHEMERIS_TYPE": 0, "CLASSIFICATION_TYPE": "U", "NORAD_CAT_ID": 58647, "ELEMENT_SET_NO": 999, "REV_AT_EPOCH": 11106, "BSTAR": 0.00029166, "MEAN_MOTION_DOT": 7.144e-05, "MEAN_MOTION_DDOT": 0}, "tle": {"line1": "1 58647U 23205C   25359.80290506  .00007144  00000+0  29166-3 0  9998", "line2": "2 58647  97.3614  19.2043 0006710 210.4543 149.6306 15.24685677111063"}}, "geometry": {"type": "Point", "coordinates": [-157.5014827782896, 21.662445130128916]}}, {"type": "Feature", "properties": {"norad_id": 58648, "name": "TIANMU-1 14", "group": "weather", "lat": -67.26268915632728, "lon": -179.0601307241713, "alt_km": 494.77586841010816, "timestamp": "2025-12-26T03:50:11.730524+00:00", "meta": {"OBJECT_NAME": "TIANMU-1 14", "OBJECT_ID": "2023-205D", "EPOCH": "2025-12-25T20:26:59.643744", "MEAN_MOTION": 15.24669385, "ECCENTRICITY": 0.0007428, "INCLINATION": 97.3547, "RA_OF_ASC_NODE": 18.5892, "ARG_OF_PERICENTER": 216.1887, "MEAN_ANOMALY": 143.8849, "EPHEMERIS_TYPE": 0, "CLASSIFICATION_TYPE": "U", "NORAD_CAT_ID": 58648, "ELEMENT_SET_NO": 999, "REV_AT_EPOCH": 11107, "BSTAR": 0.00027319, "MEAN_MOTION_DOT": 6.685e-05, "MEAN_MOTION_DDOT": 0}, "tle": {"line1": "1 58648U 23205D   25359.85207921  .00006685  00000+0  27319-3 0  9990", "line2": "2 58648  97.3547  18.5892 0007428 216.1887 143.8849 15.24669385111071"}}, "geometry": {"type": "Point", "coordinates": [-179.0601307241713, -67.26268915632728]}}, {"type": "Feature", "properties": {"norad_id": 58660, "name": "TIANMU-1 19", "group": "weather", "lat": -53.02110289751941, "lon": 121.16466393203426, "alt_km": 489.67631687477024, "timestamp": "2025-12-26T03:50:11.730534+00:00", "meta": {"OBJECT_NAME": "TIANMU-1 19", "OBJECT_ID": "2023-208A", "EPOCH": "2025-12-25T20:12:47.745792", "MEAN_MOTION": 15.28087759, "ECCENTRICITY": 0.0004848, "INCLINATION": 97.4387, "RA_OF_ASC_NODE": 110.8551, "ARG_OF_PERICENTER": 197.5933, "MEAN_ANOMALY": 162.5139, "EPHEMERIS_TYPE": 0, "CLASSIFICATION_TYPE": "U", "NORAD_CAT_ID": 58660, "ELEMENT_SET_NO": 999, "REV_AT_EPOCH": 11082, "BSTAR": 0.00036256, "MEAN_MOTION_DOT": 9.861e-05, "MEAN_MOTION_DDOT": 0}, "tle": {"line1": "1 58660U 23208A   25359.84221928  .00009861  00000+0  36256-3 0  9998", "line2": "2 58660  97.4387 110.8551 0004848 197.5933 162.5139 15.28087759110828"}}, "geometry": {"type": "Point", "coordinates": [121.16466393203426, -53.02110289751941]}}, {"type": "Feature", "properties": {"norad_id": 58661, "name": "TIANMU-1 20", "group": "weather", "lat": 75.84842395835695, "lon": 80.45184919602792, "alt_km": 473.99351401631975, "timestamp": "2025-12-26T03:50:11.730544+00:00", "meta": {"OBJECT_NAME": "TIANMU-1 20", "OBJECT_ID": "2023-208B", "EPOCH": "2025-12-25T21:12:54.607104", "MEAN_MOTION": 15.29278216, "ECCENTRICITY": 0.000687, "INCLINATION": 97.4324, "RA_OF_ASC_NODE": 111.3573, "ARG_OF_PERICENTER": 211.87, "MEAN_ANOMALY": 148.2125, "EPHEMERIS_TYPE": 0, "CLASSIFICATION_TYPE": "U", "NORAD_CAT_ID": 58661, "ELEMENT_SET_NO": 999, "REV_AT_EPOCH": 11090, "BSTAR": 0.00035258, "MEAN_MOTION_DOT": 9.948e-05, "MEAN_MOTION_DDOT": 0}, "tle": {"line1": "1 58661U 23208B   25359.88396536  .00009948  00000+0  35258-3 0  9998", "line2": "2 58661  97.4324 111.3573 0006870 211.8700 148.2125 15.29278216110905"}}, "geometry": {"type": "Point", "coordinates": [80.45184919602792, 75.84842395835695]}}]}